CTC2_L_00367016-03
1 56748U 22980HW  26070.40847222  .00000000  00000+0  00000-0 0  9994
2 56748  50.0000 180.0000 0000000   0.0000   0.0000 13.16009679    19
CTC2_L_00367016-04
1 56749U 22357ZH  26070.40847222  .00000000  00000+0  00000-0 0  9993
2 56749  50.0000 180.0000 0000000   0.0000  90.0000 13.16009679    19
CTC2_L_00367017-01
1 56750U 25525SS  26070.40847222  .00000000  00000+0  00000-0 0  9995
2 56750  50.0000 192.0000 0000000   0.0000 192.0000 13.16009679    17
CTC2_L_00367017-02
1 56751U 24807PO  26070.40847222  .00000000  00000+0  00000-0 0  9998
2 56751  50.0000 192.0000 0000000   0.0000 282.0000 13.16009679    18
CTC2_L_00367017-03
1 56752U 22930NH  26070.40847222  .00000000  00000+0  00000-0 0  9994
2 56752  50.0000 192.0000 0000000   0.0000  12.0000 13.16009679    10
CTC2_L_00367017-04
1 56753U 23596ZQ  26070.40847222  .00000000  00000+0  00000-0 0  9994
2 56753  50.0000 192.0000 0000000   0.0000 102.0000 13.16009679    11
CTC2_L_00367018-01
1 56754U 24593DT  26070.40847222  .00000000  00000+0  00000-0 0  9993
2 56754  50.0000 204.0000 0000000   0.0000 204.0000 13.16009679    19
CTC2_L_00367018-02
1 56755U 25536HH  26070.40847222  .00000000  00000+0  00000-0 0  9992
2 56755  50.0000 204.0000 0000000   0.0000 294.0000 13.16009679    19
CTC2_L_00367018-03
1 56756U 26071BF  26070.40847222  .00000000  00000+0  00000-0 0  9998
2 56756  50.0000 204.0000 0000000   0.0000  24.0000 13.16009679    11
CTC2_L_00367018-04
1 56757U 26526EG  26070.40847222  .00000000  00000+0  00000-0 0  9994
2 56757  50.0000 204.0000 0000000   0.0000 114.0000 13.16009679    12
CTC2_L_00367019-01
1 56758U 26938RX  26070.40847222  .00000000  00000+0  00000-0 0  9992
2 56758  50.0000 216.0000 0000000   0.0000 216.0000 13.16009679    19
CTC2_L_00367019-02
1 56759U 24189IB  26070.40847222  .00000000  00000+0  00000-0 0  9999
2 56759  50.0000 216.0000 0000000   0.0000 306.0000 13.16009679    10
CTC2_L_00367019-03
1 56760U 23978TS  26070.40847222  .00000000  00000+0  00000-0 0  9996
2 56760  50.0000 216.0000 0000000   0.0000  36.0000 13.16009679    12
CTC2_L_00367019-04
1 56761U 25326TB  26070.40847222  .00000000  00000+0  00000-0 0  9996
2 56761  50.0000 216.0000 0000000   0.0000 126.0000 13.16009679    13
CTC2_L_00367020-01
1 56762U 22774UI  26070.40847222  .00000000  00000+0  00000-0 0  9991
2 56762  50.0000 228.0000 0000000   0.0000 228.0000 13.16009679    10
CTC2_L_00367020-02
1 56763U 26707GB  26070.40847222  .00000000  00000+0  00000-0 0  9992
2 56763  50.0000 228.0000 0000000   0.0000 318.0000 13.16009679    11
CTC2_L_00367020-03
1 56764U 26326MY  26070.40847222  .00000000  00000+0  00000-0 0  9990
2 56764  50.0000 228.0000 0000000   0.0000  48.0000 13.16009679    12
CTC2_L_00367020-04
1 56765U 24386LB  26070.40847222  .00000000  00000+0  00000-0 0  9995
2 56765  50.0000 228.0000 0000000   0.0000 138.0000 13.16009679    13
CTC2_L_00367021-01
1 56766U 25580G   26070.40847222  .00000000  00000+0  00000-0 0  9993
2 56766  50.0000 240.0000 0000000   0.0000 240.0000 13.16009679    12
CTC2_L_00367021-02
1 56767U 24040TT  26070.40847222  .00000000  00000+0  00000-0 0  9994
2 56767  50.0000 240.0000 0000000   0.0000 330.0000 13.16009679    13
CTC2_L_00367021-03
1 56768U 25983GY  26070.40847222  .00000000  00000+0  00000-0 0  9992
2 56768  50.0000 240.0000 0000000   0.0000  60.0000 13.16009679    14
CTC2_L_00367021-04
1 56769U 23227WX  26070.40847222  .00000000  00000+0  00000-0 0  9992
2 56769  50.0000 240.0000 0000000   0.0000 150.0000 13.16009679    15
CTC2_L_00367022-01
1 56770U 23652RC  26070.40847222  .00000000  00000+0  00000-0 0  9996
2 56770  50.0000 252.0000 0000000   0.0000 252.0000 13.16009679    13
CTC2_L_00367022-02
1 56771U 22434UV  26070.40847222  .00000000  00000+0  00000-0 0  9994
2 56771  50.0000 252.0000 0000000   0.0000 342.0000 13.16009679    14
CTC2_L_00367022-03
1 56772U 25240VT  26070.40847222  .00000000  00000+0  00000-0 0  9993
2 56772  50.0000 252.0000 0000000   0.0000  72.0000 13.16009679    15
CTC2_L_00367022-04
1 56773U 22488MI  26070.40847222  .00000000  00000+0  00000-0 0  9995
2 56773  50.0000 252.0000 0000000   0.0000 162.0000 13.16009679    16
CTC2_L_00367023-01
1 56774U 23270NX  26070.40847222  .00000000  00000+0  00000-0 0  9996
2 56774  50.0000 264.0000 0000000   0.0000 264.0000 13.16009679    13
CTC2_L_00367023-02
1 56775U 25186QC  26070.40847222  .00000000  00000+0  00000-0 0  9995
2 56775  50.0000 264.0000 0000000   0.0000 354.0000 13.16009679    14
CTC2_L_00367023-03
1 56776U 23390OQ  26070.40847222  .00000000  00000+0  00000-0 0  9991
2 56776  50.0000 264.0000 0000000   0.0000  84.0000 13.16009679    15
CTC2_L_00367023-04
1 56777U 24578MD  26070.40847222  .00000000  00000+0  00000-0 0  9991
2 56777  50.0000 264.0000 0000000   0.0000 174.0000 13.16009679    16
CTC2_L_00367024-01
1 56778U 22880MZ  26070.40847222  .00000000  00000+0  00000-0 0  9996
2 56778  50.0000 276.0000 0000000   0.0000 276.0000 13.16009679    13
CTC2_L_00367024-02
1 56779U 26603DH  26070.40847222  .00000000  00000+0  00000-0 0  9994
2 56779  50.0000 276.0000 0000000   0.0000   6.0000 13.16009679    15
CTC2_L_00367024-03
1 56780U 23692WJ  26070.40847222  .00000000  00000+0  00000-0 0  9991
2 56780  50.0000 276.0000 0000000   0.0000  96.0000 13.16009679    16
CTC2_L_00367024-04
1 56781U 25394TP  26070.40847222  .00000000  00000+0  00000-0 0  9993
2 56781  50.0000 276.0000 0000000   0.0000 186.0000 13.16009679    17
CTC2_L_00367025-01
1 56782U 22639IE  26070.40847222  .00000000  00000+0  00000-0 0  9993
2 56782  50.0000 288.0000 0000000   0.0000 288.0000 13.16009679    14
CTC2_L_00367025-02
1 56783U 22158DF  26070.40847222  .00000000  00000+0  00000-0 0  9990
2 56783  50.0000 288.0000 0000000   0.0000  18.0000 13.16009679    16
CTC2_L_00367025-03
1 56784U 23001WO  26070.40847222  .00000000  00000+0  00000-0 0  9999
2 56784  50.0000 288.0000 0000000   0.0000 108.0000 13.16009679    17
CTC2_L_00367025-04
1 56785U 25869L   26070.40847222  .00000000  00000+0  00000-0 0  9994
2 56785  50.0000 288.0000 0000000   0.0000 198.0000 13.16009679    17
CTC2_L_00367026-01
1 56786U 23137QM  26070.40847222  .00000000  00000+0  00000-0 0  9991
2 56786  50.0000 300.0000 0000000   0.0000 300.0000 13.16009679    18
CTC2_L_00367026-02
1 56787U 23650CB  26070.40847222  .00000000  00000+0  00000-0 0  9992
2 56787  50.0000 300.0000 0000000   0.0000  30.0000 13.16009679    19
CTC2_L_00367026-03
1 56788U 26803SQ  26070.40847222  .00000000  00000+0  00000-0 0  9996
2 56788  50.0000 300.0000 0000000   0.0000 120.0000 13.16009679    10
CTC2_L_00367026-04
1 56789U 26637CV  26070.40847222  .00000000  00000+0  00000-0 0  9992
2 56789  50.0000 300.0000 0000000   0.0000 210.0000 13.16009679    11
CTC2_L_00367027-01
1 56790U 26172ZJ  26070.40847222  .00000000  00000+0  00000-0 0  9998
2 56790  50.0000 312.0000 0000000   0.0000 312.0000 13.16009679    19
CTC2_L_00367027-02
1 56791U 25647BI  26070.40847222  .00000000  00000+0  00000-0 0  9995
2 56791  50.0000 312.0000 0000000   0.0000  42.0000 13.16009679    10
CTC2_L_00367027-03
1 56792U 25228SY  26070.40847222  .00000000  00000+0  00000-0 0  9991
2 56792  50.0000 312.0000 0000000   0.0000 132.0000 13.16009679    11
CTC2_L_00367027-04
1 56793U 24072I   26070.40847222  .00000000  00000+0  00000-0 0  9998
2 56793  50.0000 312.0000 0000000   0.0000 222.0000 13.16009679    12
CTC2_L_00367028-01
1 56794U 26850XW  26070.40847222  .00000000  00000+0  00000-0 0  9995
2 56794  50.0000 324.0000 0000000   0.0000 324.0000 13.16009679    19
CTC2_L_00367028-02
1 56795U 26958PY  26070.40847222  .00000000  00000+0  00000-0 0  9995
2 56795  50.0000 324.0000 0000000   0.0000  54.0000 13.16009679    10
CTC2_L_00367028-03
1 56796U 26200ZC  26070.40847222  .00000000  00000+0  00000-0 0  9996
2 56796  50.0000 324.0000 0000000   0.0000 144.0000 13.16009679    11
CTC2_L_00367028-04
1 56797U 26378CD  26070.40847222  .00000000  00000+0  00000-0 0  9993
2 56797  50.0000 324.0000 0000000   0.0000 234.0000 13.16009679    12
CTC2_L_00367029-01
1 56798U 24610VT  26070.40847222  .00000000  00000+0  00000-0 0  9991
2 56798  50.0000 336.0000 0000000   0.0000 336.0000 13.16009679    19
CTC2_L_00367029-02
1 56799U 22252DJ  26070.40847222  .00000000  00000+0  00000-0 0  9992
2 56799  50.0000 336.0000 0000000   0.0000  66.0000 13.16009679    10
CTC2_L_00367029-03
1 56800U 24314LV  26070.40847222  .00000000  00000+0  00000-0 0  9996
2 56800  50.0000 336.0000 0000000   0.0000 156.0000 13.16009679    13
CTC2_L_00367029-04
1 56801U 22775FP  26070.40847222  .00000000  00000+0  00000-0 0  9996
2 56801  50.0000 336.0000 0000000   0.0000 246.0000 13.16009679    14
CTC2_L_00367030-01
1 56802U 24849YU  26070.40847222  .00000000  00000+0  00000-0 0  9991
2 56802  50.0000 348.0000 0000000   0.0000 348.0000 13.16009679    11
CTC2_L_00367030-02
1 56803U 25646NW  26070.40847222  .00000000  00000+0  00000-0 0  9998
2 56803  50.0000 348.0000 0000000   0.0000  78.0000 13.16009679    12
CTC2_L_00367030-03
1 56804U 25251FU  26070.40847222  .00000000  00000+0  00000-0 0  9991
2 56804  50.0000 348.0000 0000000   0.0000 168.0000 13.16009679    13
CTC2_L_00367030-04
1 56805U 26203JS  26070.40847222  .00000000  00000+0  00000-0 0  9990
2 56805  50.0000 348.0000 0000000   0.0000 258.0000 13.16009679    14
